{"type": "FeatureCollection", "features": [ {"type": "Feature", "properties": {"norad_id": 43622, "name": "BEIDOU-3 M13 (C32)", "group": "beidou", "lat": 18.46226462524296, "lon": -124.10612012329409, "alt_km": 21539.011440916624, "timestamp": "2025-12-17T17:50:19.516061+00:00", "meta": {"OBJECT_NAME": "BEIDOU-3 M13 (C32)", "OBJECT_ID": "2018-072A", "EPOCH": "2025-12-15T21:31:53.202720", "MEAN_MOTION": 1.86231028, "ECCENTRICITY": 0.00060178, "INCLINATION": 56.4622, "RA_OF_ASC_NODE": 68.7153, "ARG_OF_PERICENTER": 299.0223, "MEAN_ANOMALY": 60.938, "EPHEMERIS_TYPE": 0, "CLASSIFICATION_TYPE": "U", "NORAD_CAT_ID": 43622, "ELEMENT_SET_NO": 999, "REV_AT_EPOCH": 4924, "BSTAR": 0, "MEAN_MOTION_DOT": -8.2e-07, "MEAN_MOTION_DDOT": 0}, "tle": {"line1": "1 43622U 18072A   25349.89714355 -.00000082  00000+0  00000+0 0  9999", "line2": "2 43622  56.4622  68.7153 0006017 299.0223  60.9380  1.86231028 49241"}}, "geometry": {"type": "Point", "coordinates": [-124.10612012329409, 18.46226462524296]}}, {"type": "Feature", "properties": {"norad_id": 43623, "name": "BEIDOU-3 M14 (C33)", "group": "beidou", "lat": -50.58581369568392, "lon": -57.66202929740804, "alt_km": 21533.13876580378, "timestamp": "2025-12-17T17:50:19.516072+00:00", "meta": {"OBJECT_NAME": "BEIDOU-3 M14 (C33)", "OBJECT_ID": "2018-072B", "EPOCH": "2025-12-14T16:31:43.622976", "MEAN_MOTION": 1.86230968, "ECCENTRICITY": 0.00033007, "INCLINATION": 56.4633, "RA_OF_ASC_NODE": 68.7492, "ARG_OF_PERICENTER": 334.4118, "MEAN_ANOMALY": 25.5906, "EPHEMERIS_TYPE": 0, "CLASSIFICATION_TYPE": "U", "NORAD_CAT_ID": 43623, "ELEMENT_SET_NO": 999, "REV_AT_EPOCH": 4921, "BSTAR": 0, "MEAN_MOTION_DOT": -8.3e-07, "MEAN_MOTION_DDOT": 0}, "tle": {"line1": "1 43623U 18072B   25348.68869934 -.00000083  00000+0  00000+0 0  9991", "line2": "2 43623  56.4633  68.7492 0003300 334.4118  25.5906  1.86230968 49219"}}, "geometry": {"type": "Point", "coordinates": [-57.66202929740804, -50.58581369568392]}}, {"type": "Feature", "properties": {"norad_id": 43647, "name": "BEIDOU-3 M16 (C35)", "group": "beidou", "lat": 29.75484506603084, "lon": 102.03300374549488, "alt_km": 21535.210505170948, "timestamp": "2025-12-17T17:50:19.516083+00:00", "meta": {"OBJECT_NAME": "BEIDOU-3 M16 (C35)", "OBJECT_ID": "2018-078A", "EPOCH": "2025-12-16T10:58:34.332384", "MEAN_MOTION": 1.86232417, "ECCENTRICITY": 0.00072794, "INCLINATION": 54.2586, "RA_OF_ASC_NODE": 306.3912, "ARG_OF_PERICENTER": 19.6101, "MEAN_ANOMALY": 340.4043, "EPHEMERIS_TYPE": 0, "CLASSIFICATION_TYPE": "U", "NORAD_CAT_ID": 43647, "ELEMENT_SET_NO": 999, "REV_AT_EPOCH": 4875, "BSTAR": 0, "MEAN_MOTION_DOT": -9.5e-07, "MEAN_MOTION_DDOT": 0}, "tle": {"line1": "1 43647U 18078A   25350.45734181 -.00000095  00000+0  00000+0 0  9999", "line2": "2 43647  54.2586 306.3912 0007279  19.6101 340.4043  1.86232417 48759"}}, "geometry": {"type": "Point", "coordinates": [102.03300374549488, 29.75484506603084]}}, {"type": "Feature", "properties": {"norad_id": 43648, "name": "BEIDOU-3 M15 (C34)", "group": "beidou", "lat": 42.02886972103036, "lon": -13.236755129449142, "alt_km": 21514.34350809777, "timestamp": "2025-12-17T17:50:19.516094+00:00", "meta": {"OBJECT_NAME": "BEIDOU-3 M15 (C34)", "OBJECT_ID": "2018-078B", "EPOCH": "2025-12-16T14:04:39.514944", "MEAN_MOTION": 1.86232061, "ECCENTRICITY": 0.00038021, "INCLINATION": 54.2541, "RA_OF_ASC_NODE": 306.3868, "ARG_OF_PERICENTER": 19.0085, "MEAN_ANOMALY": 340.9923, "EPHEMERIS_TYPE": 0, "CLASSIFICATION_TYPE": "U", "NORAD_CAT_ID": 43648, "ELEMENT_SET_NO": 999, "REV_AT_EPOCH": 4877, "BSTAR": 0, "MEAN_MOTION_DOT": -9.5e-07, "MEAN_MOTION_DDOT": 0}, "tle": {"line1": "1 43648U 18078B   25350.58656846 -.00000095  00000+0  00000+0 0  9995", "line2": "2 43648  54.2541 306.3868 0003802  19.0085 340.9923  1.86232061 48773"}}, "geometry": {"type": "Point", "coordinates": [-13.236755129449142, 42.02886972103036]}}, {"type": "Feature", "properties": {"norad_id": 43683, "name": "BEIDOU-3 G1 (C59)", "group": "beidou", "lat": 1.3800520493041906, "lon": 134.20101861914688, "alt_km": 35780.069040645976, "timestamp": "2025-12-17T17:50:19.516137+00:00", "meta": {"OBJECT_NAME": "BEIDOU-3 G1 (C59)", "OBJECT_ID": "2018-085A", "EPOCH": "2025-12-17T05:25:52.953312", "MEAN_MOTION": 1.00269602, "ECCENTRICITY": 0.00016351, "INCLINATION": 2.6187, "RA_OF_ASC_NODE": 102.8353, "ARG_OF_PERICENTER": 50.2026, "MEAN_ANOMALY": 154.5877, "EPHEMERIS_TYPE": 0, "CLASSIFICATION_TYPE": "U", "NORAD_CAT_ID": 43683, "ELEMENT_SET_NO": 999, "REV_AT_EPOCH": 2623, "BSTAR": 0, "MEAN_MOTION_DOT": -2.55e-06, "MEAN_MOTION_DDOT": 0}, "tle": {"line1": "1 43683U 18085A   25351.22630733 -.00000255  00000+0  00000+0 0  9999", "line2": "2 43683   2.6187 102.8353 0001635  50.2026 154.5877  1.00269602 26238"}}, "geometry": {"type": "Point", "coordinates": [134.20101861914688, 1.3800520493041906]}}, {"type": "Feature", "properties": {"norad_id": 43706, "name": "BEIDOU-3 M17 (C36)", "group": "beidou", "lat": -38.95809256499559, "lon": 152.69877814366535, "alt_km": 21515.842006871604, "timestamp": "2025-12-17T17:50:19.516154+00:00", "meta": {"OBJECT_NAME": "BEIDOU-3 M17 (C36)", "OBJECT_ID": "2018-093A", "EPOCH": "2025-12-15T07:56:44.520576", "MEAN_MOTION": 1.86228523, "ECCENTRICITY": 0.00061371, "INCLINATION": 54.1729, "RA_OF_ASC_NODE": 188.5337, "ARG_OF_PERICENTER": 307.6759, "MEAN_ANOMALY": 184.25, "EPHEMERIS_TYPE": 0, "CLASSIFICATION_TYPE": "U", "NORAD_CAT_ID": 43706, "ELEMENT_SET_NO": 999, "REV_AT_EPOCH": 4811, "BSTAR": 0, "MEAN_MOTION_DOT": 1.13e-06, "MEAN_MOTION_DDOT": 0}, "tle": {"line1": "1 43706U 18093A   25349.33107084  .00000113  00000+0  00000+0 0  9993", "line2": "2 43706  54.1729 188.5337 0006137 307.6759 184.2500  1.86228523 48110"}}, "geometry": {"type": "Point", "coordinates": [152.69877814366535, -38.95809256499559]}}, {"type": "Feature", "properties": {"norad_id": 43707, "name": "BEIDOU-3 M18 (C37)", "group": "beidou", "lat": 32.865085603750366, "lon": -143.7147826243601, "alt_km": 21512.80748037945, "timestamp": "2025-12-17T17:50:19.516166+00:00", "meta": {"OBJECT_NAME": "BEIDOU-3 M18 (C37)", "OBJECT_ID": "2018-093B", "EPOCH": "2025-12-16T14:33:42.784416", "MEAN_MOTION": 1.8622677, "ECCENTRICITY": 0.00063186, "INCLINATION": 54.1735, "RA_OF_ASC_NODE": 188.4822, "ARG_OF_PERICENTER": 353.2257, "MEAN_ANOMALY": 6.8349, "EPHEMERIS_TYPE": 0, "CLASSIFICATION_TYPE": "U", "NORAD_CAT_ID": 43707, "ELEMENT_SET_NO": 999, "REV_AT_EPOCH": 4813, "BSTAR": 0, "MEAN_MOTION_DOT": 1.15e-06, "MEAN_MOTION_DDOT": 0}, "tle": {"line1": "1 43707U 18093B   25350.60674519  .00000115  00000+0  00000+0 0  9990", "line2": "2 43707  54.1735 188.4822 0006318 353.2257   6.8349  1.86226770 48131"}}, "geometry": {"type": "Point", "coordinates": [-143.7147826243601, 32.865085603750366]}}, {"type": "Feature", "properties": {"norad_id": 44204, "name": "BEIDOU-3 IGSO-1 (C38)", "group": "beidou", "lat": 51.66549264282458, "lon": 90.49426529944029, "alt_km": 35891.71134276151, "timestamp": "2025-12-17T17:50:19.516178+00:00", "meta": {"OBJECT_NAME": "BEIDOU-3 IGSO-1 (C38)", "OBJECT_ID": "2019-023A", "EPOCH": "2025-11-19T14:15:02.708640", "MEAN_MOTION": 1.00252177, "ECCENTRICITY": 0.0026966, "INCLINATION": 58.4003, "RA_OF_ASC_NODE": 39.8168, "ARG_OF_PERICENTER": 221.2202, "MEAN_ANOMALY": 126.9723, "EPHEMERIS_TYPE": 0, "CLASSIFICATION_TYPE": "U", "NORAD_CAT_ID": 44204, "ELEMENT_SET_NO": 999, "REV_AT_EPOCH": 510, "BSTAR": 0, "MEAN_MOTION_DOT": -2.26e-06, "MEAN_MOTION_DDOT": 0}, "tle": {"line1": "1 44204U 19023A   25323.59378135 -.00000226  00000+0  00000+0 0  9994", "line2": "2 44204  58.4003  39.8168 0026966 221.2202 126.9723  1.00252177  5102"}}, "geometry": {"type": "Point", "coordinates": [90.49426529944029, 51.66549264282458]}}, {"type": "Feature", "properties": {"norad_id": 44231, "name": "BEIDOU-2 G8 (C01)", "group": "beidou", "lat": 1.515809626181577, "lon": 138.6248625557074, "alt_km": 35822.83702616325, "timestamp": "2025-12-17T17:50:19.516195+00:00", "meta": {"OBJECT_NAME": "BEIDOU-2 G8 (C01)", "OBJECT_ID": "2019-027A", "EPOCH": "2025-12-17T05:27:07.832736", "MEAN_MOTION": 1.00267064, "ECCENTRICITY": 0.00087557, "INCLINATION": 1.6731, "RA_OF_ASC_NODE": 74.724, "ARG_OF_PERICENTER": 258.6065, "MEAN_ANOMALY": 338.9898, "EPHEMERIS_TYPE": 0, "CLASSIFICATION_TYPE": "U", "NORAD_CAT_ID": 44231, "ELEMENT_SET_NO": 999, "REV_AT_EPOCH": 2425, "BSTAR": 0, "MEAN_MOTION_DOT": -2.25e-06, "MEAN_MOTION_DDOT": 0}, "tle": {"line1": "1 44231U 19027A   25351.22717399 -.00000225  00000+0  00000+0 0  9997", "line2": "2 44231   1.6731  74.7240 0008755 258.6065 338.9898  1.00267064 24252"}}, "geometry": {"type": "Point", "coordinates": [138.6248625557074, 1.515809626181577]}}, {"type": "Feature", "properties": {"norad_id": 44337, "name": "BEIDOU-3 IGSO-2 (C39)", "group": "beidou", "lat": -36.46129575751244, "lon": 129.4968818564818, "alt_km": 35848.10856007387, "timestamp": "2025-12-17T17:50:19.516207+00:00", "meta": {"OBJECT_NAME": "BEIDOU-3 IGSO-2 (C39)", "OBJECT_ID": "2019-035A", "EPOCH": "2025-12-16T20:46:49.083168", "MEAN_MOTION": 1.00270089, "ECCENTRICITY": 0.00374411, "INCLINATION": 55.2266, "RA_OF_ASC_NODE": 160.465, "ARG_OF_PERICENTER": 202.4261, "MEAN_ANOMALY": 154.0265, "EPHEMERIS_TYPE": 0, "CLASSIFICATION_TYPE": "U", "NORAD_CAT_ID": 44337, "ELEMENT_SET_NO": 999, "REV_AT_EPOCH": 2383, "BSTAR": 0, "MEAN_MOTION_DOT": -3.9e-07, "MEAN_MOTION_DDOT": 0}, "tle": {"line1": "1 44337U 19035A   25350.86584587 -.00000039  00000+0  00000+0 0  9996", "line2": "2 44337  55.2266 160.4650 0037441 202.4261 154.0265  1.00270089 23833"}}, "geometry": {"type": "Point", "coordinates": [129.4968818564818, -36.46129575751244]}}]}